{"fetched_at":"2026-07-19T17:31:09.790Z","source":"https://celestrak.org/NORAD/elements/gp.php?GROUP=oneweb&FORMAT=JSON","constellation":"oneweb","records":[{"OBJECT_NAME":"ONEWEB-0258","OBJECT_ID":"2021-060K","EPOCH":"2026-07-19T02:22:38.057376","CLASSIFICATION_TYPE":"U","MEAN_MOTION":13.16607015,"ECCENTRICITY":0.00029219,"INCLINATION":87.9013,"RA_OF_ASC_NODE":222.4413,"ARG_OF_PERICENTER":94.9955,"MEAN_ANOMALY":265.1509,"EPHEMERIS_TYPE":0,"NORAD_CAT_ID":48976,"ELEMENT_SET_NO":999,"REV_AT_EPOCH":24379,"BSTAR":0.0013196741,"MEAN_MOTION_DOT":0.00000517,"MEAN_MOTION_DDOT":0},{"OBJECT_NAME":"ONEWEB-0259","OBJECT_ID":"2021-060L","EPOCH":"2026-07-19T02:13:32.876832","CLASSIFICATION_TYPE":"U","MEAN_MOTION":13.16594333,"ECCENTRICITY":0.00022671,"INCLINATION":87.9077,"RA_OF_ASC_NODE":222.4444,"ARG_OF_PERICENTER":94.3334,"MEAN_ANOMALY":265.8056,"EPHEMERIS_TYPE":0,"NORAD_CAT_ID":48977,"ELEMENT_SET_NO":999,"REV_AT_EPOCH":24382,"BSTAR":-0.00015228332,"MEAN_MOTION_DOT":-4.5e-7,"MEAN_MOTION_DDOT":0},{"OBJECT_NAME":"ONEWEB-0260","OBJECT_ID":"2021-060M","EPOCH":"2026-07-19T02:00:58.692960","CLASSIFICATION_TYPE":"U","MEAN_MOTION":13.16594561,"ECCENTRICITY":0.00017205,"INCLINATION":87.9074,"RA_OF_ASC_NODE":222.4462,"ARG_OF_PERICENTER":94.8116,"MEAN_ANOMALY":265.3211,"EPHEMERIS_TYPE":0,"NORAD_CAT_ID":48978,"ELEMENT_SET_NO":999,"REV_AT_EPOCH":24380,"BSTAR":-0.00048176015,"MEAN_MOTION_DOT":-0.00000171,"MEAN_MOTION_DDOT":0},{"OBJECT_NAME":"ONEWEB-0261","OBJECT_ID":"2021-060N","EPOCH":"2026-07-19T03:07:08.038560","CLASSIFICATION_TYPE":"U","MEAN_MOTION":13.16594541,"ECCENTRICITY":0.00021329,"INCLINATION":87.9075,"RA_OF_ASC_NODE":222.4379,"ARG_OF_PERICENTER":103.3093,"MEAN_ANOMALY":256.8275,"EPHEMERIS_TYPE":0,"NORAD_CAT_ID":48979,"ELEMENT_SET_NO":999,"REV_AT_EPOCH":24386,"BSTAR":0.00021012381,"MEAN_MOTION_DOT":9.3e-7,"MEAN_MOTION_DDOT":0},{"OBJECT_NAME":"ONEWEB-0262","OBJECT_ID":"2021-060P","EPOCH":"2026-07-19T02:38:37.633920","CLASSIFICATION_TYPE":"U","MEAN_MOTION":13.165939,"ECCENTRICITY":0.00023438,"INCLINATION":87.9078,"RA_OF_ASC_NODE":222.4289,"ARG_OF_PERICENTER":93.8305,"MEAN_ANOMALY":266.3094,"EPHEMERIS_TYPE":0,"NORAD_CAT_ID":48980,"ELEMENT_SET_NO":999,"REV_AT_EPOCH":24382,"BSTAR":0.000040005771,"MEAN_MOTION_DOT":2.8e-7,"MEAN_MOTION_DDOT":0},{"OBJECT_NAME":"ONEWEB-0263","OBJECT_ID":"2021-060Q","EPOCH":"2026-07-19T07:03:05.687712","CLASSIFICATION_TYPE":"U","MEAN_MOTION":13.16594088,"ECCENTRICITY":0.00022419,"INCLINATION":87.9082,"RA_OF_ASC_NODE":222.4041,"ARG_OF_PERICENTER":101.2257,"MEAN_ANOMALY":258.9126,"EPHEMERIS_TYPE":0,"NORAD_CAT_ID":48981,"ELEMENT_SET_NO":999,"REV_AT_EPOCH":24381,"BSTAR":0.00010826058,"MEAN_MOTION_DOT":5.4e-7,"MEAN_MOTION_DDOT":0},{"OBJECT_NAME":"ONEWEB-0264","OBJECT_ID":"2021-060R","EPOCH":"2026-07-19T02:28:21.146592","CLASSIFICATION_TYPE":"U","MEAN_MOTION":13.16592638,"ECCENTRICITY":0.00019724,"INCLINATION":87.9074,"RA_OF_ASC_NODE":222.4438,"ARG_OF_PERICENTER":98.2774,"MEAN_ANOMALY":261.8581,"EPHEMERIS_TYPE":0,"NORAD_CAT_ID":48982,"ELEMENT_SET_NO":999,"REV_AT_EPOCH":24379,"BSTAR":-0.00010945055,"MEAN_MOTION_DOT":-2.9e-7,"MEAN_MOTION_DDOT":0},{"OBJECT_NAME":"ONEWEB-0266","OBJECT_ID":"2021-060T","EPOCH":"2026-07-19T02:59:07.331424","CLASSIFICATION_TYPE":"U","MEAN_MOTION":13.1659573,"ECCENTRICITY":0.00020812,"INCLINATION":87.9079,"RA_OF_ASC_NODE":222.4314,"ARG_OF_PERICENTER":90.3574,"MEAN_ANOMALY":269.7795,"EPHEMERIS_TYPE":0,"NORAD_CAT_ID":48984,"ELEMENT_SET_NO":999,"REV_AT_EPOCH":24378,"BSTAR":0.00021312505,"MEAN_MOTION_DOT":9.4e-7,"MEAN_MOTION_DDOT":0},{"OBJECT_NAME":"ONEWEB-0267","OBJECT_ID":"2021-060U","EPOCH":"2026-07-19T01:25:40.182240","CLASSIFICATION_TYPE":"U","MEAN_MOTION":13.16594511,"ECCENTRICITY":0.0002064,"INCLINATION":87.9081,"RA_OF_ASC_NODE":222.4411,"ARG_OF_PERICENTER":99.234,"MEAN_ANOMALY":260.9024,"EPHEMERIS_TYPE":0,"NORAD_CAT_ID":48985,"ELEMENT_SET_NO":999,"REV_AT_EPOCH":24378,"BSTAR":0.00022944869,"MEAN_MOTION_DOT":0.00000101,"MEAN_MOTION_DDOT":0},{"OBJECT_NAME":"ONEWEB-0268","OBJECT_ID":"2021-060V","EPOCH":"2026-07-19T02:29:29.079456","CLASSIFICATION_TYPE":"U","MEAN_MOTION":13.16597481,"ECCENTRICITY":0.00019228,"INCLINATION":87.9066,"RA_OF_ASC_NODE":222.4393,"ARG_OF_PERICENTER":89.777,"MEAN_ANOMALY":270.3581,"EPHEMERIS_TYPE":0,"NORAD_CAT_ID":48986,"ELEMENT_SET_NO":999,"REV_AT_EPOCH":24405,"BSTAR":-0.0019383616,"MEAN_MOTION_DOT":-0.00000728,"MEAN_MOTION_DDOT":0},{"OBJECT_NAME":"ONEWEB-0269","OBJECT_ID":"2021-060W","EPOCH":"2026-07-19T02:02:08.741760","CLASSIFICATION_TYPE":"U","MEAN_MOTION":13.16595228,"ECCENTRICITY":0.00019504,"INCLINATION":87.9074,"RA_OF_ASC_NODE":222.4454,"ARG_OF_PERICENTER":89.064,"MEAN_ANOMALY":271.0714,"EPHEMERIS_TYPE":0,"NORAD_CAT_ID":48987,"ELEMENT_SET_NO":999,"REV_AT_EPOCH":24382,"BSTAR":-0.00007900326,"MEAN_MOTION_DOT":-1.7e-7,"MEAN_MOTION_DDOT":0},{"OBJECT_NAME":"ONEWEB-0270","OBJECT_ID":"2021-060X","EPOCH":"2026-07-19T07:55:30.524160","CLASSIFICATION_TYPE":"U","MEAN_MOTION":13.16592206,"ECCENTRICITY":0.00023838,"INCLINATION":87.9081,"RA_OF_ASC_NODE":222.3986,"ARG_OF_PERICENTER":98.7092,"MEAN_ANOMALY":261.4309,"EPHEMERIS_TYPE":0,"NORAD_CAT_ID":48988,"ELEMENT_SET_NO":999,"REV_AT_EPOCH":24389,"BSTAR":-0.00028283509,"MEAN_MOTION_DOT":-9.5e-7,"MEAN_MOTION_DDOT":0},{"OBJECT_NAME":"ONEWEB-0271","OBJECT_ID":"2021-060Y","EPOCH":"2026-07-19T02:08:59.344800","CLASSIFICATION_TYPE":"U","MEAN_MOTION":13.16594483,"ECCENTRICITY":0.00021605,"INCLINATION":87.9076,"RA_OF_ASC_NODE":222.4355,"ARG_OF_PERICENTER":99.416,"MEAN_ANOMALY":260.7215,"EPHEMERIS_TYPE":0,"NORAD_CAT_ID":48989,"ELEMENT_SET_NO":999,"REV_AT_EPOCH":24386,"BSTAR":-0.0003178323,"MEAN_MOTION_DOT":-0.00000109,"MEAN_MOTION_DDOT":0},{"OBJECT_NAME":"ONEWEB-0272","OBJECT_ID":"2021-060Z","EPOCH":"2026-07-19T02:40:53.503968","CLASSIFICATION_TYPE":"U","MEAN_MOTION":13.16595894,"ECCENTRICITY":0.00018945,"INCLINATION":87.9074,"RA_OF_ASC_NODE":222.4424,"ARG_OF_PERICENTER":99.795,"MEAN_ANOMALY":260.3394,"EPHEMERIS_TYPE":0,"NORAD_CAT_ID":48990,"ELEMENT_SET_NO":999,"REV_AT_EPOCH":24381,"BSTAR":-0.0001760475,"MEAN_MOTION_DOT":-5.4e-7,"MEAN_MOTION_DDOT":0},{"OBJECT_NAME":"ONEWEB-0273","OBJECT_ID":"2021-060AA","EPOCH":"2026-07-19T01:23:21.437664","CLASSIFICATION_TYPE":"U","MEAN_MOTION":13.16603461,"ECCENTRICITY":0.00022462,"INCLINATION":87.9075,"RA_OF_ASC_NODE":222.4537,"ARG_OF_PERICENTER":96.1257,"MEAN_ANOMALY":264.0129,"EPHEMERIS_TYPE":0,"NORAD_CAT_ID":48991,"ELEMENT_SET_NO":999,"REV_AT_EPOCH":24378,"BSTAR":0.0022687702,"MEAN_MOTION_DOT":0.0000088,"MEAN_MOTION_DDOT":0},{"OBJECT_NAME":"ONEWEB-0274","OBJECT_ID":"2021-060AB","EPOCH":"2026-07-19T01:59:50.488800","CLASSIFICATION_TYPE":"U","MEAN_MOTION":13.16596132,"ECCENTRICITY":0.00017782,"INCLINATION":87.9071,"RA_OF_ASC_NODE":222.4477,"ARG_OF_PERICENTER":96.3753,"MEAN_ANOMALY":263.758,"EPHEMERIS_TYPE":0,"NORAD_CAT_ID":48992,"ELEMENT_SET_NO":999,"REV_AT_EPOCH":24382,"BSTAR":-0.000002435073,"MEAN_MOTION_DOT":1.2e-7,"MEAN_MOTION_DDOT":0}]}
