[
  {
    "name": "ONEWEB-0258",
    "noradId": "48976",
    "line1": "1 48976U 21060K   26200.09905159  .00000517  00000+0  13197-2 0  9996",
    "line2": "2 48976  87.9013 222.4413 0002921  94.9955 265.1509 13.16607015243790"
  },
  {
    "name": "ONEWEB-0259",
    "noradId": "48977",
    "line1": "1 48977U 21060L   26200.09274163 -.00000045  00000+0 -15228-3 0  9997",
    "line2": "2 48977  87.9077 222.4444 0002267  94.3334 265.8056 13.16594333243829"
  },
  {
    "name": "ONEWEB-0260",
    "noradId": "48978",
    "line1": "1 48978U 21060M   26200.08401265 -.00000171  00000+0 -48176-3 0  9990",
    "line2": "2 48978  87.9074 222.4462 0001720  94.8116 265.3211 13.16594561243802"
  },
  {
    "name": "ONEWEB-0261",
    "noradId": "48979",
    "line1": "1 48979U 21060N   26200.12995415  .00000093  00000+0  21012-3 0  9992",
    "line2": "2 48979  87.9075 222.4379 0002132 103.3093 256.8275 13.16594541243868"
  },
  {
    "name": "ONEWEB-0262",
    "noradId": "48980",
    "line1": "1 48980U 21060P   26200.11015780  .00000028  00000+0  40006-4 0  9994",
    "line2": "2 48980  87.9078 222.4289 0002343  93.8305 266.3094 13.16593900243825"
  },
  {
    "name": "ONEWEB-0263",
    "noradId": "48981",
    "line1": "1 48981U 21060Q   26200.29381583  .00000054  00000+0  10826-3 0  9996",
    "line2": "2 48981  87.9082 222.4041 0002241 101.2257 258.9126 13.16594088243814"
  },
  {
    "name": "ONEWEB-0264",
    "noradId": "48982",
    "line1": "1 48982U 21060R   26200.10302253 -.00000029  00000+0 -10945-3 0  9990",
    "line2": "2 48982  87.9074 222.4438 0001972  98.2774 261.8581 13.16592638243799"
  },
  {
    "name": "ONEWEB-0266",
    "noradId": "48984",
    "line1": "1 48984U 21060T   26200.12439041  .00000094  00000+0  21313-3 0  9991",
    "line2": "2 48984  87.9079 222.4314 0002081  90.3574 269.7795 13.16595730243781"
  },
  {
    "name": "ONEWEB-0267",
    "noradId": "48985",
    "line1": "1 48985U 21060U   26200.05949285  .00000101  00000+0  22945-3 0  9991",
    "line2": "2 48985  87.9081 222.4411 0002064  99.2340 260.9024 13.16594511243787"
  },
  {
    "name": "ONEWEB-0268",
    "noradId": "48986",
    "line1": "1 48986U 21060V   26200.10380879 -.00000728  00000+0 -19384-2 0  9995",
    "line2": "2 48986  87.9066 222.4393 0001922  89.7770 270.3581 13.16597481244056"
  },
  {
    "name": "ONEWEB-0269",
    "noradId": "48987",
    "line1": "1 48987U 21060W   26200.08482340 -.00000017  00000+0 -79003-4 0  9996",
    "line2": "2 48987  87.9074 222.4454 0001950  89.0640 271.0714 13.16595228243821"
  },
  {
    "name": "ONEWEB-0270",
    "noradId": "48988",
    "line1": "1 48988U 21060X   26200.33021440 -.00000095  00000+0 -28284-3 0  9995",
    "line2": "2 48988  87.9081 222.3986 0002383  98.7092 261.4309 13.16592206243891"
  },
  {
    "name": "ONEWEB-0271",
    "noradId": "48989",
    "line1": "1 48989U 21060Y   26200.08957575 -.00000109  00000+0 -31783-3 0  9999",
    "line2": "2 48989  87.9076 222.4355 0002160  99.4160 260.7215 13.16594483243868"
  },
  {
    "name": "ONEWEB-0272",
    "noradId": "48990",
    "line1": "1 48990U 21060Z   26200.11173037 -.00000054  00000+0 -17605-3 0  9994",
    "line2": "2 48990  87.9074 222.4424 0001894  99.7950 260.3394 13.16595894243814"
  },
  {
    "name": "ONEWEB-0273",
    "noradId": "48991",
    "line1": "1 48991U 21060AA  26200.05788701  .00000880  00000+0  22688-2 0  9999",
    "line2": "2 48991  87.9075 222.4537 0002246  96.1257 264.0129 13.16603461243787"
  },
  {
    "name": "ONEWEB-0274",
    "noradId": "48992",
    "line1": "1 48992U 21060AB  26200.08322325  .00000012  00000+0 -24351-5 0  9999",
    "line2": "2 48992  87.9071 222.4477 0001778  96.3753 263.7580 13.16596132243827"
  }
]